STARLINK-4005           
1 52686U 22053AG  24286.40620233  .00018032  00000+0  11490-2 0  9991
2 52686  53.2158 288.6208 0001436  93.4405 266.6751 15.08812293133252
STARLINK-3981           
1 52687U 22053AH  24286.49720922 -.00001993  00000+0 -10727-3 0  9990
2 52687  53.2165 287.9324 0001299  86.4956 273.6185 15.08812147133271
STARLINK-4032           
1 52688U 22053AJ  24286.29479027 -.00004519  00000+0 -26614-3 0  9995
2 52688  53.2160 288.7246 0001356  94.7351 265.3796 15.08821803133246
STARLINK-4078           
1 52689U 22053AK  24286.41992793 -.00006684  00000+0 -40247-3 0  9993
2 52689  53.2159 288.2790 0001320  82.4210 277.6932 15.08821119133263
STARLINK-4035           
1 52690U 22053AL  24286.43832385 -.00004197  00000+0 -24596-3 0  9993
2 52690  53.2163 288.1969 0001442  43.8830 316.2277 15.08813557133260
STARLINK-3945           
1 52691U 22053AM  24286.43930646 -.00011619  00000+0 -71372-3 0  9994
2 52691  53.2162 288.4418 0001231  79.4148 280.6983 15.08807650133260
STARLINK-3993           
1 52692U 22053AN  24286.40148337 -.00010469  00000+0 -64111-3 0  9995
2 52692  53.2154 288.0916 0001304  98.4668 261.6472 15.08814175133262
STARLINK-3946           
1 52693U 22053AP  24286.27639635  .00001009  00000+0  81531-4 0  9991
2 52693  53.2156 288.9237 0001734  78.5140 281.6047 15.08810618133247
STARLINK-4072           
1 52694U 22053AQ  24286.15864106  .00002930  00000+0  20220-3 0  9993
2 52694  53.2165 289.4522 0001335  93.7912 266.3232 15.08822637133222
STARLINK-4041           
1 52695U 22053AR  24286.46176183 -.00003319  00000+0 -19071-3 0  9995
2 52695  53.2162 292.8875 0001232 107.4614 252.6512 15.08813794133208
STARLINK-4025           
1 52696U 22053AS  24286.41255908 -.00012453  00000+0 -76643-3 0  9991
2 52696  53.2155 288.3065 0001285  99.9243 260.1894 15.08806218133269
STARLINK-4018           
1 52697U 22053AT  24286.42225404 -.00013330  00000+0 -82156-3 0  9992
2 52697  53.2158 293.2685 0001444  84.7549 275.3608 15.08813914133198
STARLINK-4030           
1 52698U 22053AU  24286.16738716 -.00005836  00000+0 -34911-3 0  9997
2 52698  53.2156 294.4048 0001386  81.8266 278.2884 15.08818715133150
STARLINK-3987           
1 52699U 22053AV  24286.14623511 -.00010713  00000+0 -65669-3 0  9996
2 52699  53.2160 284.5356 0001194  76.8433 283.2692 15.08801908133288
STARLINK-4034           
1 52700U 22053AW  24286.45806214 -.00002338  00000+0 -12892-3 0  9990
2 52700  53.2165 292.7509 0001378 108.4530 251.6612 15.08813805133203
STARLINK-4003           
1 52701U 22053AX  24286.12643979  .00010389  00000+0  66945-3 0  9993
2 52701  53.2159 279.5943 0001737  95.4356 264.6835 15.08861961133355
STARLINK-4033           
1 52702U 22053AY  24286.02385726 -.00018726  00000+0 -11618-2 0  9997
2 52702  53.2162 295.0831 0003110  82.4444 277.6902 15.08827202133135
STARLINK-4020           
1 52703U 22053AZ  24285.98291411 -.00015033  00000+0 -92909-3 0  9990
2 52703  53.2165 280.2523 0001261  99.2573 260.8562 15.08814702133336
STARLINK-3999           
1 52704U 22053BA  24286.13010700 -.00021381  00000+0 -13301-2 0  9990
2 52704  53.2158 279.5793 0001319 100.5954 259.5186 15.08817301133359
STARLINK-3844           
1 52705U 22053BB  24285.98660166 -.00005106  00000+0 -30291-3 0  9995
2 52705  53.2154 280.2230 0001804  87.1342 272.9856 15.08838972133339
STARLINK-3970           
1 52706U 22053BC  24285.85778595 -.00019128  00000+0 -11870-2 0  9998
2 52706  53.2152 280.8018 0001038 103.9581 256.1526 15.08839203133313
STARLINK-4007           
1 52707U 22053BD  24286.16690779 -.00005325  00000+0 -31684-3 0  9991
2 52707  53.2152 279.2934 0001620 102.0509 258.0665 15.08828316133374
STARLINK-3962           
1 52708U 22053BE  24286.27731663 -.00015538  00000+0 -96120-3 0  9995
2 52708  53.2161 278.9089 0001282  87.3664 272.7475 15.08806157133385
STARLINK-4091           
1 52830U 22062A   24285.42909666  .00000870  00000+0  72788-4 0  9993
2 52830  53.2163 182.9175 0002232  77.2684 282.8558 15.08842390128140
STARLINK-4089           
1 52831U 22062B   24285.88540600 -.00003727  00000+0 -21626-3 0  9993
2 52831  53.2147 180.6751 0001544  62.3302 297.7846 15.08825675128215
STARLINK-4083           
1 52832U 22062C   24286.41164035 -.00004400  00000+0 -25870-3 0  9992
2 52832  53.2162 178.3166 0001473 102.6229 257.4928 15.08818451128784
STARLINK-4086           
1 52833U 22062D   24286.07676007 -.00008831  00000+0 -53774-3 0  9998
2 52833  53.2154 179.8169 0001680  94.7781 265.3403 15.08818910128246
STARLINK-4108           
1 52834U 22062E   24286.13564099  .00002746  00000+0  19058-3 0  9997
2 52834  53.2156 179.5534 0001410  68.1948 291.9194 15.08833153128252
STARLINK-4080           
1 52835U 22062F   24285.99947533  .00002508  00000+0  17577-3 0  9999
2 52835  53.2157 180.1632 0001562  81.3302 278.7867 15.08805384128233
STARLINK-4043           
1 52836U 22062G   24286.09247590 -.00000014  00000+0  17241-4 0  9998
2 52836  53.2158 180.0651 0001599 110.9767 249.1396 15.08836186128243
STARLINK-4036           
1 52837U 22062H   24285.85595679  .00000426  00000+0  44879-4 0  9999
2 52837  53.2149 180.8096 0001213  90.3195 269.7936 15.08837645128210
STARLINK-4092           
1 52838U 22062J   24286.12458871  .00002143  00000+0  15262-3 0  9994
2 52838  53.2161 179.5913 0001152  81.9192 278.1931 15.08855009128744
STARLINK-4048           
1 52839U 22062K   24286.44477329 -.00003444  00000+0 -19851-3 0  9994
2 52839  53.2169 178.1660 0001509  80.8747 279.2416 15.08823490128791
STARLINK-4049           
1 52840U 22062L   24285.86333738  .00002404  00000+0  16914-3 0  9996
2 52840  53.2162 180.8898 0001443  87.8250 272.2907 15.08826020128219
STARLINK-4065           
1 52841U 22062M   24286.43372666  .00002423  00000+0  17031-3 0  9996
2 52841  53.2158 178.2141 0001447 103.4689 256.6464 15.08830681128797
STARLINK-4046           
1 52842U 22062N   24285.85226042 -.00014010  00000+0 -86433-3 0  9997
2 52842  53.2144 180.7468 0001435  97.5126 262.6029 15.08819846128210
STARLINK-4188           
1 52843U 22062P   24286.09516828  .00000102  00000+0  24493-4 0  9993
2 52843  53.2164 179.7353 0001350  75.2878 284.8263 15.08824642128741
STARLINK-4208           
1 52844U 22062Q   24286.44109058 -.00000960  00000+0 -42258-4 0  9999
2 52844  53.2163 178.1834 0001501  90.1290 269.9874 15.08828566128796
STARLINK-4168           
1 52845U 22062R   24286.09884764  .00001953  00000+0  14073-3 0  9999
2 52845  53.2157 179.7862 0001246  82.5559 277.5574 15.08840036128740
STARLINK-4212           
1 52846U 22062S   24286.43100707  .00000317  00000+0  38018-4 0  9995
2 52846  53.2165 178.2393 0000996  79.4412 280.6693 15.08829371128798
STARLINK-4206           
1 52847U 22062T   24285.88907402 -.00004993  00000+0 -29604-3 0  9997
2 52847  53.2152 180.6636 0001268  88.5353 271.5784 15.08814064128221
STARLINK-4202           
1 52848U 22062U   24286.17243862  .00005530  00000+0  36569-3 0  9998
2 52848  53.2146 179.3888 0001207  88.6134 271.4996 15.08793201128751
STARLINK-4197           
1 52849U 22062V   24286.41256484  .00000569  00000+0  53836-4 0  9994
2 52849  53.2166 168.3114 0001584  88.8733 271.2440 15.08831553128923
STARLINK-4187           
1 52850U 22062W   24286.12559906  .00021991  00000+0  13965-2 0  9998
2 52850  53.2149 179.9545 0001135 106.9758 253.1359 15.08813857128748
STARLINK-3809           
1 52851U 22062X   24286.40887344  .00000285  00000+0  36001-4 0  9991
2 52851  53.2152 168.3266 0001528  84.0788 276.0378 15.08844160128926
STARLINK-4184           
1 52852U 22062Y   24286.41625119  .00005570  00000+0  36803-3 0  9994
2 52852  53.2162 168.2939 0001468 110.7748 249.3401 15.08815294128926
STARLINK-4189           
1 52853U 22062Z   24286.06760896 -.00001395  00000+0 -69629-4 0  9994
2 52853  53.2161 169.8299 0001260  82.3269 277.7866 15.08817551128876
STARLINK-4204           
1 52854U 22062AA  24286.07400069 -.00003512  00000+0 -20274-3 0  9994
2 52854  53.2148 169.8305 0001218  81.6405 278.4725 15.08833152128874
STARLINK-4209           
1 52855U 22062AB  24286.06296624 -.00006855  00000+0 -41328-3 0  9990
2 52855  53.2150 169.8790 0001484  78.9256 281.1903 15.08815370128875
STARLINK-4201           
1 52856U 22062AC  24286.40248407  .00000981  00000+0  79730-4 0  9996
2 52856  53.2164 168.4030 0001564  79.9542 280.1627 15.08832188128925
STARLINK-4199           
1 52857U 22062AD  24285.85687550  .00003405  00000+0  23193-3 0  9996
2 52857  53.2160 170.8044 0001335 101.0260 259.0883 15.08837042128354
STARLINK-4198           
1 52858U 22062AE  24285.86791961  .00002046  00000+0  14662-3 0  9991
2 52858  53.2159 170.7846 0001530 108.3313 251.7846 15.08840906128359
STARLINK-4196           
1 52859U 22062AF  24286.38313635 -.00004267  00000+0 -25034-3 0  9992
2 52859  53.2152 168.4414 0001626 101.2724 258.8451 15.08812495128927
STARLINK-4191           
1 52860U 22062AG  24286.05928944 -.00000337  00000+0 -30681-5 0  9993
2 52860  53.2159 169.8992 0001390  96.1591 263.9559 15.08822857128877
STARLINK-4112           
1 52861U 22062AH  24285.83574966  .00004170  00000+0  27984-3 0  9997
2 52861  53.2154 170.9101 0001498 104.4395 255.6763 15.08852408128355
STARLINK-4010           
1 52862U 22062AJ  24286.11449103  .00017482  00000+0  11151-2 0  9992
2 52862  53.2141 169.6472 0001184 102.0506 258.0619 15.08795007128884
STARLINK-4270           
1 52863U 22062AK  24286.10712473 -.00001179  00000+0 -56020-4 0  9999
2 52863  53.2151 169.6794 0001136  74.3776 285.7342 15.08822926128881
STARLINK-4267           
1 52864U 22062AL  24285.97832774  .00000325  00000+0  38520-4 0  9996
2 52864  53.2153 170.2560 0001244  86.1866 273.9268 15.08821833128864
STARLINK-4274           
1 52865U 22062AM  24285.96360368  .00002064  00000+0  14776-3 0  9999
2 52865  53.2154 170.3275 0001376  79.8906 280.2241 15.08832956128860
